[{"OBJECT_NAME":"STARLINK-11438 [DTC]","OBJECT_ID":"2025-024K","EPOCH":"2026-03-09T07:58:32.707200","MEAN_MOTION":15.7093921,"ECCENTRICITY":0.00018152,"INCLINATION":42.9984,"RA_OF_ASC_NODE":183.3164,"ARG_OF_PERICENTER":245.9264,"MEAN_ANOMALY":114.1414,"EPHEMERIS_TYPE":0,"CLASSIFICATION_TYPE":"U","NORAD_CAT_ID":62888,"ELEMENT_SET_NO":999,"REV_AT_EPOCH":6341,"BSTAR":0.0017095744,"MEAN_MOTION_DOT":0.0022592,"MEAN_MOTION_DDOT":0},{"OBJECT_NAME":"FENGYUN 1C DEB","OBJECT_ID":"1999-025AMT","EPOCH":"2026-03-09T00:15:23.574528","MEAN_MOTION":15.70909629,"ECCENTRICITY":0.00138927,"INCLINATION":99.0703,"RA_OF_ASC_NODE":83.4899,"ARG_OF_PERICENTER":75.2074,"MEAN_ANOMALY":313.8054,"EPHEMERIS_TYPE":0,"CLASSIFICATION_TYPE":"U","NORAD_CAT_ID":30612,"ELEMENT_SET_NO":999,"REV_AT_EPOCH":1589,"BSTAR":0.0070902188,"MEAN_MOTION_DOT":0.00977467,"MEAN_MOTION_DDOT":0}]
